ONEWEB-0317             
1 49103U 21075AE  23360.56488905 -.00000112  00000+0 -34773-3 0  9993
2 49103  87.8999 170.4242 0001679  97.4859 262.6460 13.12440565116661
ONEWEB-0318             
1 49104U 21075AF  23360.46742998  .00000086  00000+0  18540-3 0  9990
2 49104  87.9220 155.2600 0001289  77.7847 282.3429 13.18781917118069
ONEWEB-0319             
1 49105U 21075AG  23360.60901896 -.00000005  00000+0 -45918-4 0  9994
2 49105  87.9212 185.5327 0001531  64.0702 296.0587 13.17646107114616
ONEWEB-0323             
1 49106U 21075AH  23360.55537194  .00000410  00000+0  11040-2 0  9990
2 49106  87.8997 170.4144 0001466  83.7316 276.3979 13.12442239116020
ONEWEB-0329             
1 49107U 21075AJ  23360.54099272  .00000019  00000+0  16596-4 0  9998
2 49107  87.9213 185.5508 0001697  85.0317 275.1008 13.17649224114583
ONEWEB-0330             
1 49108U 21075AK  23360.54258808  .00000021  00000+0  20022-4 0  9993
2 49108  87.9198 185.5516 0001814  85.9063 274.2276 13.17649305114625
ONEWEB-0292             
1 49186U 21083A   23360.46948723  .00000317  00000+0  83251-3 0  9991
2 49186  87.9004 140.1130 0001372 102.1744 257.9539 13.13473208112297
ONEWEB-0303             
1 49187U 21083B   23360.46381908  .00000013  00000+0  11328-5 0  9999
2 49187  87.9223 155.2585 0001380  86.5614 273.5676 13.18585691110875
